{
  "norad_id": 47382,
  "name": "STARLINK-2102",
  "history": [
    {
      "epoch": "2026-03-28T21:08:42.838368Z",
      "apogee_km": 476.28256795084235,
      "perigee_km": 474.2446407471334,
      "latitude_deg": 3.3629498925335446e-05,
      "longitude_deg": 153.941192080659,
      "height_km": 476.33643111127003,
      "semi_major_axis_km": 6853.400604348988,
      "eccentricity": 0.00014868,
      "inclination_deg": 53.1588,
      "raan_deg": 297.4148,
      "arg_perigee_deg": 99.8986,
      "mean_anomaly_deg": 260.2183,
      "mean_motion_rev_day": 15.30183745
    }
  ]
}